CCSDS_OMM_VERS = 2.0
CREATION_DATE  = 
ORIGINATOR     = 

OBJECT_NAME    = STARLINK-36954
OBJECT_ID      = 2026-041T
CENTER_NAME    = EARTH
REF_FRAME      = TEME
TIME_SYSTEM    = UTC
MEAN_ELEMENT_THEORY = SGP/SGP4

EPOCH          = 2026-03-08T22:00:01.999584
MEAN_MOTION    = 15.96275642
ECCENTRICITY   = .00004386
INCLINATION    = 53.1594
RA_OF_ASC_NODE = 66.1446
ARG_OF_PERICENTER = 100.4578
MEAN_ANOMALY   = 276.8314

EPHEMERIS_TYPE = 0
CLASSIFICATION_TYPE = U
NORAD_CAT_ID   = 68057
ELEMENT_SET_NO = 999
REV_AT_EPOCH   = 225
BSTAR          = -.33917745E-2
MEAN_MOTION_DOT = -.1442283E-1
MEAN_MOTION_DDOT = .6215916E-3

CCSDS_OMM_VERS = 2.0
CREATION_DATE  = 
ORIGINATOR     = 

OBJECT_NAME    = STARLINK-36899
OBJECT_ID      = 2026-041U
CENTER_NAME    = EARTH
REF_FRAME      = TEME
TIME_SYSTEM    = UTC
MEAN_ELEMENT_THEORY = SGP/SGP4

EPOCH          = 2026-03-08T22:00:01.999584
MEAN_MOTION    = 15.96398150
ECCENTRICITY   = .00005224
INCLINATION    = 53.1595
RA_OF_ASC_NODE = 66.1414
ARG_OF_PERICENTER = 96.7728
MEAN_ANOMALY   = 282.2826

EPHEMERIS_TYPE = 0
CLASSIFICATION_TYPE = U
NORAD_CAT_ID   = 68058
ELEMENT_SET_NO = 999
REV_AT_EPOCH   = 225
BSTAR          = -.33641164E-2
MEAN_MOTION_DOT = -.1440159E-1
MEAN_MOTION_DDOT = .62070142E-3

CCSDS_OMM_VERS = 2.0
CREATION_DATE  = 
ORIGINATOR     = 

OBJECT_NAME    = STARLINK-36917
OBJECT_ID      = 2026-041V
CENTER_NAME    = EARTH
REF_FRAME      = TEME
TIME_SYSTEM    = UTC
MEAN_ELEMENT_THEORY = SGP/SGP4

EPOCH          = 2026-03-08T22:00:01.999584
MEAN_MOTION    = 15.96538149
ECCENTRICITY   = .0000561
INCLINATION    = 53.1593
RA_OF_ASC_NODE = 66.1367
ARG_OF_PERICENTER = 95.5755
MEAN_ANOMALY   = 285.8009

EPHEMERIS_TYPE = 0
CLASSIFICATION_TYPE = U
NORAD_CAT_ID   = 68059
ELEMENT_SET_NO = 999
REV_AT_EPOCH   = 225
BSTAR          = -.33668256E-2
MEAN_MOTION_DOT = -.1452246E-1
MEAN_MOTION_DDOT = .63117179E-3

CCSDS_OMM_VERS = 2.0
CREATION_DATE  = 
ORIGINATOR     = 

OBJECT_NAME    = STARLINK-36959
OBJECT_ID      = 2026-041W
CENTER_NAME    = EARTH
REF_FRAME      = TEME
TIME_SYSTEM    = UTC
MEAN_ELEMENT_THEORY = SGP/SGP4

EPOCH          = 2026-03-08T22:00:01.999584
MEAN_MOTION    = 15.96657165
ECCENTRICITY   = .00004541
INCLINATION    = 53.1593
RA_OF_ASC_NODE = 66.1323
ARG_OF_PERICENTER = 97.0776
MEAN_ANOMALY   = 286.1256

EPHEMERIS_TYPE = 0
CLASSIFICATION_TYPE = U
NORAD_CAT_ID   = 68060
ELEMENT_SET_NO = 999
REV_AT_EPOCH   = 225
BSTAR          = -.33271387E-2
MEAN_MOTION_DOT = -.1444608E-1
MEAN_MOTION_DDOT = .62588246E-3

CCSDS_OMM_VERS = 2.0
CREATION_DATE  = 
ORIGINATOR     = 

OBJECT_NAME    = STARLINK-36915
OBJECT_ID      = 2026-041X
CENTER_NAME    = EARTH
REF_FRAME      = TEME
TIME_SYSTEM    = UTC
MEAN_ELEMENT_THEORY = SGP/SGP4

EPOCH          = 2026-03-08T22:00:01.999584
MEAN_MOTION    = 15.96786223
ECCENTRICITY   = .00005012
INCLINATION    = 53.1592
RA_OF_ASC_NODE = 66.1282
ARG_OF_PERICENTER = 93.8465
MEAN_ANOMALY   = 291.4037

EPHEMERIS_TYPE = 0
CLASSIFICATION_TYPE = U
NORAD_CAT_ID   = 68061
ELEMENT_SET_NO = 999
REV_AT_EPOCH   = 225
BSTAR          = -.33071901E-2
MEAN_MOTION_DOT = -.1446135E-1
MEAN_MOTION_DDOT = .62793184E-3

CCSDS_OMM_VERS = 2.0
CREATION_DATE  = 
ORIGINATOR     = 

OBJECT_NAME    = STARLINK-36952
OBJECT_ID      = 2026-041Y
CENTER_NAME    = EARTH
REF_FRAME      = TEME
TIME_SYSTEM    = UTC
MEAN_ELEMENT_THEORY = SGP/SGP4

EPOCH          = 2026-03-08T22:00:01.999584
MEAN_MOTION    = 15.96922441
ECCENTRICITY   = .00004573
INCLINATION    = 53.1593
RA_OF_ASC_NODE = 66.1240
ARG_OF_PERICENTER = 93.3959
MEAN_ANOMALY   = 294.0550

EPHEMERIS_TYPE = 0
CLASSIFICATION_TYPE = U
NORAD_CAT_ID   = 68062
ELEMENT_SET_NO = 999
REV_AT_EPOCH   = 225
BSTAR          = -.33093823E-2
MEAN_MOTION_DOT = -.1457813E-1
MEAN_MOTION_DDOT = .63813908E-3

CCSDS_OMM_VERS = 2.0
CREATION_DATE  = 
ORIGINATOR     = 

OBJECT_NAME    = STARLINK-37000
OBJECT_ID      = 2026-041Z
CENTER_NAME    = EARTH
REF_FRAME      = TEME
TIME_SYSTEM    = UTC
MEAN_ELEMENT_THEORY = SGP/SGP4

EPOCH          = 2026-03-08T22:00:01.999584
MEAN_MOTION    = 15.97058817
ECCENTRICITY   = .00004451
INCLINATION    = 53.1592
RA_OF_ASC_NODE = 66.1189
ARG_OF_PERICENTER = 93.8348
MEAN_ANOMALY   = 295.8485

EPHEMERIS_TYPE = 0
CLASSIFICATION_TYPE = U
NORAD_CAT_ID   = 68063
ELEMENT_SET_NO = 999
REV_AT_EPOCH   = 225
BSTAR          = -.33087616E-2
MEAN_MOTION_DOT = -.1468384E-1
MEAN_MOTION_DDOT = .6475505E-3

CCSDS_OMM_VERS = 2.0
CREATION_DATE  = 
ORIGINATOR     = 

OBJECT_NAME    = STARLINK-36996
OBJECT_ID      = 2026-041AA
CENTER_NAME    = EARTH
REF_FRAME      = TEME
TIME_SYSTEM    = UTC
MEAN_ELEMENT_THEORY = SGP/SGP4

EPOCH          = 2026-03-08T22:00:01.999584
MEAN_MOTION    = 15.97196302
ECCENTRICITY   = .00004938
INCLINATION    = 53.1592
RA_OF_ASC_NODE = 66.1144
ARG_OF_PERICENTER = 88.8906
MEAN_ANOMALY   = 303.0613

EPHEMERIS_TYPE = 0
CLASSIFICATION_TYPE = U
NORAD_CAT_ID   = 68064
ELEMENT_SET_NO = 999
REV_AT_EPOCH   = 225
BSTAR          = -.33084885E-2
MEAN_MOTION_DOT = -.1479297E-1
MEAN_MOTION_DDOT = .65732918E-3

CCSDS_OMM_VERS = 2.0
CREATION_DATE  = 
ORIGINATOR     = 

OBJECT_NAME    = STARLINK-36836
OBJECT_ID      = 2026-041AB
CENTER_NAME    = EARTH
REF_FRAME      = TEME
TIME_SYSTEM    = UTC
MEAN_ELEMENT_THEORY = SGP/SGP4

EPOCH          = 2026-03-08T22:00:01.999584
MEAN_MOTION    = 15.97460522
ECCENTRICITY   = .00005041
INCLINATION    = 53.1592
RA_OF_ASC_NODE = 66.1057
ARG_OF_PERICENTER = 97.0860
MEAN_ANOMALY   = 298.9625

EPHEMERIS_TYPE = 0
CLASSIFICATION_TYPE = U
NORAD_CAT_ID   = 68065
ELEMENT_SET_NO = 999
REV_AT_EPOCH   = 225
BSTAR          = -.33052188E-2
MEAN_MOTION_DOT = -.1499314E-1
MEAN_MOTION_DDOT = .6755789E-3

CCSDS_OMM_VERS = 2.0
CREATION_DATE  = 
ORIGINATOR     = 

OBJECT_NAME    = STARLINK-36976
OBJECT_ID      = 2026-041AC
CENTER_NAME    = EARTH
REF_FRAME      = TEME
TIME_SYSTEM    = UTC
MEAN_ELEMENT_THEORY = SGP/SGP4

EPOCH          = 2026-03-08T22:00:01.999584
MEAN_MOTION    = 15.97592199
ECCENTRICITY   = .00005409
INCLINATION    = 53.1590
RA_OF_ASC_NODE = 66.1011
ARG_OF_PERICENTER = 85.0103
MEAN_ANOMALY   = 313.2176

EPHEMERIS_TYPE = 0
CLASSIFICATION_TYPE = U
NORAD_CAT_ID   = 68066
ELEMENT_SET_NO = 999
REV_AT_EPOCH   = 225
BSTAR          = -.32920904E-2
MEAN_MOTION_DOT = -.1504234E-1
MEAN_MOTION_DDOT = .68058748E-3

CCSDS_OMM_VERS = 2.0
CREATION_DATE  = 
ORIGINATOR     = 

OBJECT_NAME    = STARLINK-36929
OBJECT_ID      = 2026-041AD
CENTER_NAME    = EARTH
REF_FRAME      = TEME
TIME_SYSTEM    = UTC
MEAN_ELEMENT_THEORY = SGP/SGP4

EPOCH          = 2026-03-08T22:00:01.999584
MEAN_MOTION    = 15.97335255
ECCENTRICITY   = .00004226
INCLINATION    = 53.1590
RA_OF_ASC_NODE = 66.1096
ARG_OF_PERICENTER = 94.0261
MEAN_ANOMALY   = 300.1415

EPHEMERIS_TYPE = 0
CLASSIFICATION_TYPE = U
NORAD_CAT_ID   = 68067
ELEMENT_SET_NO = 999
REV_AT_EPOCH   = 225
BSTAR          = -.33144893E-2
MEAN_MOTION_DOT = -.1493209E-1
MEAN_MOTION_DDOT = .66966788E-3

CCSDS_OMM_VERS = 2.0
CREATION_DATE  = 
ORIGINATOR     = 

OBJECT_NAME    = STARLINK-36990
OBJECT_ID      = 2026-041AE
CENTER_NAME    = EARTH
REF_FRAME      = TEME
TIME_SYSTEM    = UTC
MEAN_ELEMENT_THEORY = SGP/SGP4

EPOCH          = 2026-03-08T22:00:01.999584
MEAN_MOTION    = 15.97735398
ECCENTRICITY   = .00004814
INCLINATION    = 53.1589
RA_OF_ASC_NODE = 66.0961
ARG_OF_PERICENTER = 90.0634
MEAN_ANOMALY   = 310.5663

EPHEMERIS_TYPE = 0
CLASSIFICATION_TYPE = U
NORAD_CAT_ID   = 68068
ELEMENT_SET_NO = 999
REV_AT_EPOCH   = 225
BSTAR          = -.33134902E-2
MEAN_MOTION_DOT = -.15258E-1
MEAN_MOTION_DDOT = .69964043E-3

