STARLINK-36954          
1 68057U 26041T   26067.91668981 -.01442283  62159-3 -33918-2 0  9996
2 68057  53.1594  66.1446 0000438 100.4578 276.8314 15.96275642  2259
STARLINK-36899          
1 68058U 26041U   26067.91668981 -.01440159  62070-3 -33641-2 0  9992
2 68058  53.1595  66.1414 0000522  96.7728 282.2826 15.96398150  2253
STARLINK-36917          
1 68059U 26041V   26067.91668981 -.01452246  63117-3 -33668-2 0  9995
2 68059  53.1593  66.1367 0000561  95.5755 285.8009 15.96538149  2255
STARLINK-36959          
1 68060U 26041W   26067.91668981 -.01444608  62588-3 -33271-2 0  9991
2 68060  53.1593  66.1323 0000454  97.0776 286.1256 15.96657165  2258
STARLINK-36915          
1 68061U 26041X   26067.91668981 -.01446135  62793-3 -33072-2 0  9996
2 68061  53.1592  66.1282 0000501  93.8465 291.4037 15.96786223  2258
STARLINK-36952          
1 68062U 26041Y   26067.91668981 -.01457813  63814-3 -33094-2 0  9991
2 68062  53.1593  66.1240 0000457  93.3959 294.0550 15.96922441  2250
STARLINK-37000          
1 68063U 26041Z   26067.91668981 -.01468384  64755-3 -33088-2 0  9995
2 68063  53.1592  66.1189 0000445  93.8348 295.8485 15.97058817  2250
STARLINK-36996          
1 68064U 26041AA  26067.91668981 -.01479297  65733-3 -33085-2 0  9995
2 68064  53.1592  66.1144 0000493  88.8906 303.0613 15.97196302  2256
STARLINK-36836          
1 68065U 26041AB  26067.91668981 -.01499314  67558-3 -33052-2 0  9999
2 68065  53.1592  66.1057 0000504  97.0860 298.9625 15.97460522  2257
STARLINK-36976          
1 68066U 26041AC  26067.91668981 -.01504234  68059-3 -32921-2 0  9999
2 68066  53.1590  66.1011 0000540  85.0103 313.2176 15.97592199  2251
STARLINK-36929          
1 68067U 26041AD  26067.91668981 -.01493209  66967-3 -33145-2 0  9994
2 68067  53.1590  66.1096 0000422  94.0261 300.1415 15.97335255  2258
STARLINK-36990          
1 68068U 26041AE  26067.91668981 -.01525800  69964-3 -33135-2 0  9997
2 68068  53.1589  66.0961 0000481  90.0634 310.5663 15.97735398  2254
